{"fetched_at":"2026-03-29T16:36:15Z","count":15609,"tles":[{"name":"STARLINK-1964","line1":"1 47565U 21009T   26087.81599087  .00127851  00000+0  99142-3 0  9990","line2":"2 47565  53.0417 234.7740 0007578 359.7786   0.3226 15.70916291284534","category":"Starlink"}]}